NORAD_CAT_ID,OBJECT_NAME,OBJECT_TYPE,EPOCH,MEAN_MOTION,ECCENTRICITY,INCLINATION,RA_OF_ASC_NODE,ARG_OF_PERICENTER,MEAN_ANOMALY,BSTAR,MEAN_MOTION_DOT,MEAN_MOTION_DDOT,TLE_LINE0,TLE_LINE1,TLE_LINE2,SEMIMAJOR_AXIS,PERIOD,APOGEE,PERIGEE,DECAYED
52291.0,STARLINK-3773,PAYLOAD,2022-12-11 20:42:36,15.08841502,0.000273,53.2173,13.5166,22.3877,337.7234,0.00038609,5.862e-05,0.0,0 STARLINK-3773,1 52291U 22041AG  22345.86291892  .00005862  00000-0  38609-3 0  9999,2 52291  53.2173  13.5166 0002730  22.3877 337.7234 15.08841502 35781,6917.876,95.437,541.629,537.852,0.0
52291.0,STARLINK-3773,PAYLOAD,2022-12-12 09:25:41,15.08847991,0.0002714,53.2167,11.1377,23.0559,337.0554,0.00026978,4.009e-05,0.0,0 STARLINK-3773,1 52291U 22041AG  22346.39283757  .00004009  00000-0  26978-3 0  9997,2 52291  53.2167  11.1377 0002714  23.0559 337.0554 15.08847991 37080,6917.856,95.437,541.5980000000002,537.8430000000002,0.0
52291.0,STARLINK-3773,PAYLOAD,2022-12-12 12:36:27,15.08852252,0.0002746,53.2168,10.5429,22.8251,337.2863,0.00034219,5.164e-05,0.0,0 STARLINK-3773,1 52291U 22041AG  22346.52531572  .00005164  00000-0  34219-3 0  9993,2 52291  53.2168  10.5429 0002746  22.8251 337.2863 15.08852252 35880,6917.843000000003,95.437,541.6080000000002,537.808,0.0
52291.0,STARLINK-3773,PAYLOAD,2022-12-12 15:47:13,15.08856279,0.0002756,53.2168,9.9481,23.1048,337.0068,0.0003953,6.011e-05,0.0,0 STARLINK-3773,1 52291U 22041AG  22346.65779350  .00006011  00000-0  39530-3 0  9998,2 52291  53.2168   9.9481 0002756  23.1048 337.0068 15.08856279 35900,6917.831,95.437,541.602,537.789,0.0
52291.0,STARLINK-3773,PAYLOAD,2022-12-13 04:30:18,15.08838821,0.0002807,53.217,7.5693,24.417,335.6955,-7.0196e-05,-1.406e-05,0.0,0 STARLINK-3773,1 52291U 22041AG  22347.18771851 -.00001406  00000-0 -70196-4 0  9994,2 52291  53.2170   7.5693 0002807  24.4170 335.6955 15.08838821 37206,6917.884,95.438,541.691,537.807,0.0
52291.0,STARLINK-3773,PAYLOAD,2022-12-13 12:27:14,15.08843679,0.0002847,53.2173,6.0826,24.8187,335.2942,0.00014363,1.998e-05,0.0,0 STARLINK-3773,1 52291U 22041AG  22347.51891780  .00001998  00000-0  14363-3 0  9992,2 52291  53.2173   6.0826 0002847  24.8187 335.2942 15.08843679 36036,6917.869000000002,95.437,541.7040000000002,537.765,0.0
52291.0,STARLINK-3773,PAYLOAD,2022-12-13 20:24:09,15.08850732,0.0002856,53.2174,4.5958,24.9818,335.1312,0.00015594,2.195e-05,0.0,0 STARLINK-3773,1 52291U 22041AG  22347.85011291  .00002195  00000-0  15594-3 0  9997,2 52291  53.2174   4.5958 0002856  24.9818 335.1312 15.08850732 36081,6917.848000000001,95.437,541.688,537.737,0.0
52291.0,STARLINK-3773,PAYLOAD,2022-12-14 07:31:51,15.08848118,0.0002861,53.2181,2.5143,25.3016,334.8116,9.8851e-05,1.285e-05,0.0,0 STARLINK-3773,1 52291U 22041AG  22348.31379212  .00001285  00000-0  98851-4 0  9996,2 52291  53.2181   2.5143 0002861  25.3016 334.8116 15.08848118 37370,6917.856,95.437,541.7,537.741,0.0
52291.0,STARLINK-3773,PAYLOAD,2022-12-14 12:18:01,15.0884318,0.0002882,53.218,1.6221,25.5484,334.5651,6.3815e-05,7.27e-06,0.0,0 STARLINK-3773,1 52291U 22041AG  22348.51251549  .00000727  00000-0  63815-4 0  9992,2 52291  53.2180   1.6221 0002882  25.5484 334.5651 15.08843180 36183,6917.871,95.437,541.729,537.742,0.0
52291.0,STARLINK-3773,PAYLOAD,2022-12-14 20:14:56,15.08848866,0.000291,53.218,0.1354,25.8463,334.2674,3.2857e-05,2.34e-06,0.0,0 STARLINK-3773,1 52291U 22041AG  22348.84371215  .00000234  00000-0  32857-4 0  9996,2 52291  53.2180   0.1354 0002910  25.8463 334.2674 15.08848866 36230,6917.853,95.437,541.731,537.705,0.0
52291.0,STARLINK-3773,PAYLOAD,2022-12-15 12:08:48,15.08844467,0.000289,53.2174,357.1618,26.2676,333.8462,0.00016192,2.29e-05,0.0,0 STARLINK-3773,1 52291U 22041AG  22349.50611321  .00002290  00000-0  16192-3 0  9992,2 52291  53.2174 357.1618 0002890  26.2676 333.8462 15.08844467 37558,6917.8669999999975,95.437,541.731,537.732,0.0
52291.0,STARLINK-3773,PAYLOAD,2022-12-15 20:05:43,15.088541199999998,0.0002887,53.2174,355.6751,26.4096,333.7043,0.0002088,3.037e-05,0.0,0 STARLINK-3773,1 52291U 22041AG  22349.83730657  .00003037  00000-0  20880-3 0  9991,2 52291  53.2174 355.6751 0002887  26.4096 333.7043 15.08854120 36384,6917.837,95.437,541.6990000000002,537.705,0.0
52291.0,STARLINK-3773,PAYLOAD,2022-12-16 13:34:58,15.0884381,0.0002973,53.2173,352.4043,25.3919,334.7219,3.0672e-05,2e-06,0.0,0 STARLINK-3773,1 52291U 22041AG  22350.56594910  .00000200  00000-0  30672-4 0  9993,2 52291  53.2173 352.4043 0002973  25.3919 334.7219 15.08843810 36492,6917.869000000002,95.437,541.79,537.677,0.0
52291.0,STARLINK-3773,PAYLOAD,2022-12-16 15:10:21,15.08845985,0.0002968,53.2173,352.107,25.3894,334.7243,4.7092e-05,4.61e-06,0.0,0 STARLINK-3773,1 52291U 22041AG  22350.63218765  .00000461  00000-0  47092-4 0  9995,2 52291  53.2173 352.1070 0002968  25.3894 334.7243 15.08845985 37724,6917.861999999999,95.437,541.78,537.674,0.0
52291.0,STARLINK-3773,PAYLOAD,2022-12-16 19:56:30,15.08843841,0.0002932,53.2173,351.2149,24.9376,335.1757,7.0855e-05,8.39e-06,0.0,0 STARLINK-3773,1 52291U 22041AG  22350.83090784  .00000839  00000-0  70855-4 0  9998,2 52291  53.2173 351.2149 0002932  24.9376 335.1757 15.08843841 36534,6917.869000000002,95.437,541.762,537.705,0.0
52291.0,STARLINK-3773,PAYLOAD,2022-12-17 02:18:03,15.08837201,0.0002885,53.2174,350.0252,25.4486,334.6648,-3.0672e-05,-7.77e-06,0.0,0 STARLINK-3773,1 52291U 22041AG  22351.09587210 -.00000777  00000-0 -30672-4 0  9998,2 52291  53.2174 350.0252 0002885  25.4486 334.6648 15.08837201 37797,6917.889,95.438,541.75,537.758,0.0
52291.0,STARLINK-3773,PAYLOAD,2022-12-17 11:50:21,15.08843577,0.0002785,53.2174,348.241,28.5251,331.5893,4.1537e-06,-2.22e-06,0.0,0 STARLINK-3773,1 52291U 22041AG  22351.49330850 -.00000222  00000-0  41537-5 0  9995,2 52291  53.2174 348.2410 0002785  28.5251 331.5893 15.08843577 36638,6917.869000000002,95.437,541.661,537.808,0.0
52291.0,STARLINK-3773,PAYLOAD,2022-12-17 16:36:31,15.08833686,0.000287,53.2172,347.3488,25.8615,334.2519999999999,-2.2529e-05,-6.47e-06,0.0,0 STARLINK-3773,1 52291U 22041AG  22351.69203494 -.00000647  00000-0 -22529-4 0  9991,2 52291  53.2172 347.3488 0002870  25.8615 334.2520 15.08833686 36660,6917.9,95.438,541.75,537.779,0.0
52291.0,STARLINK-3773,PAYLOAD,2022-12-18 03:44:13,15.08842499,0.0002914,53.2172,345.2674,24.5758,335.5373,0.00017732,2.535e-05,0.0,0 STARLINK-3773,1 52291U 22041AG  22352.15571173  .00002535  00000-0  17732-3 0  9990,2 52291  53.2172 345.2674 0002914  24.5758 335.5373 15.08842499 37952,6917.873000000001,95.437,541.754,537.722,0.0
52291.0,STARLINK-3773,PAYLOAD,2022-12-18 11:41:09,15.08830201,0.0003083,53.2173,343.7806,26.6716,333.4435,-8.273200000000001e-05,-1.605e-05,0.0,0 STARLINK-3773,1 52291U 22041AG  22352.48691770 -.00001605  00000-0 -82732-4 0  9994,2 52291  53.2173 343.7806 0003083  26.6716 333.4435 15.08830201 38009,6917.91,95.438,541.908,537.643,0.0
52291.0,STARLINK-3773,PAYLOAD,2022-12-18 16:27:19,15.08833428,0.0002974,53.2173,342.8885,26.544,333.5704,7.4704e-05,9e-06,0.0,0 STARLINK-3773,1 52291U 22041AG  22352.68563883  .00000900  00000-0  74704-4 0  9994,2 52291  53.2173 342.8885 0002974  26.5440 333.5704 15.08833428 36818,6917.9,95.438,541.823,537.7080000000002,0.0
52291.0,STARLINK-3773,PAYLOAD,2022-12-19 08:21:10,15.08833548,0.0002993,53.217,339.915,27.954,332.1612,0.00017155,2.442e-05,0.0,0 STARLINK-3773,1 52291U 22041AG  22353.34804332  .00002442  00000-0  17155-3 0  9994,2 52291  53.2170 339.9150 0002993  27.9540 332.1612 15.08833548 36911,6917.9,95.438,541.836,537.695,0.0
52291.0,STARLINK-3773,PAYLOAD,2022-12-19 16:18:06,15.08845024,0.0002986,53.2168,338.4282,28.59,331.5255,0.00070593,0.00010966,0.0,0 STARLINK-3773,1 52291U 22041AG  22353.67924298  .00010966  00000-0  70593-3 0  9999,2 52291  53.2168 338.4282 0002986  28.5900 331.5255 15.08845024 38186,6917.865,95.437,541.7959999999998,537.664,0.0
52291.0,STARLINK-3773,PAYLOAD,2022-12-20 11:22:43,15.08858814,0.0002872,53.2164,334.8598,27.7274,332.3871,0.0005311,8.179e-05,0.0,0 STARLINK-3773,1 52291U 22041AG  22354.47411399  .00008179  00000-0  53110-3 0  9990,2 52291  53.2164 334.8598 0002872  27.7274 332.3871 15.08858814 37083,6917.823,95.436,541.675,537.701,0.0
52291.0,STARLINK-3773,PAYLOAD,2022-12-21 04:51:57,15.08853923,0.0003522,53.2162,331.588,42.3788,317.7475,0.00025496,3.773e-05,0.0,0 STARLINK-3773,1 52291U 22041AG  22355.20275373  .00003773  00000-0  25496-3 0  9993,2 52291  53.2162 331.5880 0003522  42.3788 317.7475 15.08853923 38416,6917.8380000000025,95.437,542.139,537.266,0.0
52291.0,STARLINK-3773,PAYLOAD,2022-12-21 15:59:40,15.08832418,0.0002715,53.2164,329.50699999999995,25.9225,334.1902,1.7653e-05,-8e-08,0.0,0 STARLINK-3773,1 52291U 22041AG  22355.66644087 -.00000008  00000-0  17653-4 0  9991,2 52291  53.2164 329.5070 0002715  25.9225 334.1902 15.08832418 38483,6917.904,95.438,541.6469999999998,537.89,0.0
52291.0,STARLINK-3773,PAYLOAD,2022-12-22 04:42:46,15.08826607,0.0002975,53.2175,327.1287,22.8068,337.3056,0.00013846,1.915e-05,0.0,0 STARLINK-3773,1 52291U 22041AG  22356.19636770  .00001915  00000-0  13846-3 0  9996,2 52291  53.2175 327.1287 0002975  22.8068 337.3056 15.08826607 37340,6917.920999999999,95.438,541.844,537.7280000000002,0.0
52291.0,STARLINK-3773,PAYLOAD,2022-12-22 15:50:28,15.08834806,0.0002793,53.219,325.0444,29.2566,330.8583,0.00026874,3.991e-05,0.0,0 STARLINK-3773,1 52291U 22041AG  22356.66004904  .00003991  00000-0  26874-3 0  9997,2 52291  53.2190 325.0444 0002793  29.2566 330.8583 15.08834806 37412,6917.896,95.438,541.693,537.8290000000002,0.0
52291.0,STARLINK-3773,PAYLOAD,2022-12-23 04:33:33,15.0883648,0.0002861,53.2188,322.6669,27.6575,332.4569,0.00027589,4.105e-05,0.0,0 STARLINK-3773,1 52291U 22041AG  22357.18997180  .00004105  00000-0  27589-3 0  9994,2 52291  53.2188 322.6669 0002861  27.6575 332.4569 15.08836480 38715,6917.891,95.438,541.735,537.7769999999998,0.0
